[{"OBJECT_NAME":"IRIDIUM 163","OBJECT_ID":"2018-061G","EPOCH":"2026-03-09T13:59:42.401760","MEAN_MOTION":14.34217733,"ECCENTRICITY":0.0002172,"INCLINATION":86.3916,"RA_OF_ASC_NODE":98.3882,"ARG_OF_PERICENTER":91.0803,"MEAN_ANOMALY":269.0641,"EPHEMERIS_TYPE":0,"CLASSIFICATION_TYPE":"U","NORAD_CAT_ID":43575,"ELEMENT_SET_NO":999,"REV_AT_EPOCH":39910,"BSTAR":2.0406e-5,"MEAN_MOTION_DOT":7.7e-7,"MEAN_MOTION_DDOT":0},{"OBJECT_NAME":"CZ-6A DEB","OBJECT_ID":"2024-140TV","EPOCH":"2026-03-09T13:45:30.477888","MEAN_MOTION":14.62074276,"ECCENTRICITY":0.0128193,"INCLINATION":88.8916,"RA_OF_ASC_NODE":274.1171,"ARG_OF_PERICENTER":227.9722,"MEAN_ANOMALY":131.0525,"EPHEMERIS_TYPE":0,"CLASSIFICATION_TYPE":"U","NORAD_CAT_ID":61308,"ELEMENT_SET_NO":999,"REV_AT_EPOCH":8147,"BSTAR":0.00066363,"MEAN_MOTION_DOT":3.766e-5,"MEAN_MOTION_DDOT":0}]
